[
    {
        "CCSDS_OMM_VERS": "3.0",
        "COMMENT": "GENERATED VIA SPACE-TRACK.ORG API",
        "CREATION_DATE": "2024-08-10T22:36:16",
        "ORIGINATOR": "18 SPCS",
        "OBJECT_NAME": "YAOGAN-31 C",
        "OBJECT_ID": "2018-034C",
        "CENTER_NAME": "EARTH",
        "REF_FRAME": "TEME",
        "TIME_SYSTEM": "UTC",
        "MEAN_ELEMENT_THEORY": "SGP4",
        "EPOCH": "2024-08-10T21:05:46.673952",
        "MEAN_MOTION": "13.45336730",
        "ECCENTRICITY": "0.02149220",
        "INCLINATION": "63.4007",
        "RA_OF_ASC_NODE": "27.3790",
        "ARG_OF_PERICENTER": "5.2689",
        "MEAN_ANOMALY": "355.0528",
        "EPHEMERIS_TYPE": "0",
        "CLASSIFICATION_TYPE": "U",
        "NORAD_CAT_ID": "43277",
        "ELEMENT_SET_NO": "999",
        "REV_AT_EPOCH": "31138",
        "BSTAR": "0.00011071000000",
        "MEAN_MOTION_DOT": "-0.00000015",
        "MEAN_MOTION_DDOT": "0.0000000000000",
        "SEMIMAJOR_AXIS": "7467.602",
        "PERIOD": "107.036",
        "APOAPSIS": "1249.962",
        "PERIAPSIS": "928.972",
        "OBJECT_TYPE": "PAYLOAD",
        "RCS_SIZE": "LARGE",
        "COUNTRY_CODE": "PRC",
        "LAUNCH_DATE": "2018-04-10",
        "SITE": "JSC",
        "DECAY_DATE": null,
        "FILE": "4427334",
        "GP_ID": "264733157",
        "TLE_LINE0": "0 YAOGAN-31 C",
        "TLE_LINE1": "1 43277U 18034C   24223.87901243 -.00000015  00000-0  11071-3 0  9996",
        "TLE_LINE2": "2 43277  63.4007  27.3790 0214922   5.2689 355.0528 13.45336730311382"
    },
    {
        "CCSDS_OMM_VERS": "3.0",
        "COMMENT": "GENERATED VIA SPACE-TRACK.ORG API",
        "CREATION_DATE": "2024-08-10T22:46:31",
        "ORIGINATOR": "18 SPCS",
        "OBJECT_NAME": "DMC 3-FM2",
        "OBJECT_ID": "2015-032B",
        "CENTER_NAME": "EARTH",
        "REF_FRAME": "TEME",
        "TIME_SYSTEM": "UTC",
        "MEAN_ELEMENT_THEORY": "SGP4",
        "EPOCH": "2024-08-10T21:05:44.925216",
        "MEAN_MOTION": "14.83853361",
        "ECCENTRICITY": "0.00090470",
        "INCLINATION": "97.7470",
        "RA_OF_ASC_NODE": "102.2813",
        "ARG_OF_PERICENTER": "113.9124",
        "MEAN_ANOMALY": "246.3039",
        "EPHEMERIS_TYPE": "0",
        "CLASSIFICATION_TYPE": "U",
        "NORAD_CAT_ID": "40716",
        "ELEMENT_SET_NO": "999",
        "REV_AT_EPOCH": "48968",
        "BSTAR": "0.00032730000000",
        "MEAN_MOTION_DOT": "0.00002665",
        "MEAN_MOTION_DDOT": "0.0000000000000",
        "SEMIMAJOR_AXIS": "6995.324",
        "PERIOD": "97.045",
        "APOAPSIS": "623.518",
        "PERIAPSIS": "610.861",
        "OBJECT_TYPE": "PAYLOAD",
        "RCS_SIZE": "LARGE",
        "COUNTRY_CODE": "UK",
        "LAUNCH_DATE": "2015-07-10",
        "SITE": "SRI",
        "DECAY_DATE": null,
        "FILE": "4427451",
        "GP_ID": "264737903",
        "TLE_LINE0": "0 DMC 3-FM2",
        "TLE_LINE1": "1 40716U 15032B   24223.87899219  .00002665  00000-0  32730-3 0  9992",
        "TLE_LINE2": "2 40716  97.7470 102.2813 0009047 113.9124 246.3039 14.83853361489686"
    },
    {
        "CCSDS_OMM_VERS": "3.0",
        "COMMENT": "GENERATED VIA SPACE-TRACK.ORG API",
        "CREATION_DATE": "2024-08-10T22:56:16",
        "ORIGINATOR": "18 SPCS",
        "OBJECT_NAME": "JILIN-1-03",
        "OBJECT_ID": "2017-002B",
        "CENTER_NAME": "EARTH",
        "REF_FRAME": "TEME",
        "TIME_SYSTEM": "UTC",
        "MEAN_ELEMENT_THEORY": "SGP4",
        "EPOCH": "2024-08-10T21:05:44.673792",
        "MEAN_MOTION": "15.21089441",
        "ECCENTRICITY": "0.00110490",
        "INCLINATION": "97.2160",
        "RA_OF_ASC_NODE": "238.5169",
        "ARG_OF_PERICENTER": "75.6599",
        "MEAN_ANOMALY": "284.5863",
        "EPHEMERIS_TYPE": "0",
        "CLASSIFICATION_TYPE": "U",
        "NORAD_CAT_ID": "41914",
        "ELEMENT_SET_NO": "999",
        "REV_AT_EPOCH": "41847",
        "BSTAR": "0.00087048000000",
        "MEAN_MOTION_DOT": "0.00019352",
        "MEAN_MOTION_DDOT": "0.0000000000000",
        "SEMIMAJOR_AXIS": "6880.690",
        "PERIOD": "94.669",
        "APOAPSIS": "510.158",
        "PERIAPSIS": "494.953",
        "OBJECT_TYPE": "PAYLOAD",
        "RCS_SIZE": "MEDIUM",
        "COUNTRY_CODE": "PRC",
        "LAUNCH_DATE": "2017-01-09",
        "SITE": "JSC",
        "DECAY_DATE": null,
        "FILE": "4427638",
        "GP_ID": "264739955",
        "TLE_LINE0": "0 JILIN-1-03",
        "TLE_LINE1": "1 41914U 17002B   24223.87898928  .00019352  00000-0  87048-3 0  9991",
        "TLE_LINE2": "2 41914  97.2160 238.5169 0011049  75.6599 284.5863 15.21089441418471"
    },
    {
        "CCSDS_OMM_VERS": "3.0",
        "COMMENT": "GENERATED VIA SPACE-TRACK.ORG API",
        "CREATION_DATE": "2024-08-10T22:26:16",
        "ORIGINATOR": "18 SPCS",
        "OBJECT_NAME": "JASON 2",
        "OBJECT_ID": "2008-032A",
        "CENTER_NAME": "EARTH",
        "REF_FRAME": "TEME",
        "TIME_SYSTEM": "UTC",
        "MEAN_ELEMENT_THEORY": "SGP4",
        "EPOCH": "2024-08-10T21:05:38.107392",
        "MEAN_MOTION": "12.87672622",
        "ECCENTRICITY": "0.00078080",
        "INCLINATION": "66.0400",
        "RA_OF_ASC_NODE": "30.8716",
        "ARG_OF_PERICENTER": "268.4275",
        "MEAN_ANOMALY": "196.0939",
        "EPHEMERIS_TYPE": "0",
        "CLASSIFICATION_TYPE": "U",
        "NORAD_CAT_ID": "33105",
        "ELEMENT_SET_NO": "999",
        "REV_AT_EPOCH": "75684",
        "BSTAR": "-0.00004903600000",
        "MEAN_MOTION_DOT": "-0.00000075",
        "MEAN_MOTION_DDOT": "0.0000000000000",
        "SEMIMAJOR_AXIS": "7688.912",
        "PERIOD": "111.830",
        "APOAPSIS": "1316.780",
        "PERIAPSIS": "1304.773",
        "OBJECT_TYPE": "PAYLOAD",
        "RCS_SIZE": "LARGE",
        "COUNTRY_CODE": "FR",
        "LAUNCH_DATE": "2008-06-20",
        "SITE": "AFWTR",
        "DECAY_DATE": null,
        "FILE": "4427247",
        "GP_ID": "264729721",
        "TLE_LINE0": "0 JASON 2",
        "TLE_LINE1": "1 33105U 08032A   24223.87891328 -.00000075  00000-0 -49036-4 0  9994",
        "TLE_LINE2": "2 33105  66.0400  30.8716 0007808 268.4275 196.0939 12.87672622756842"
    },
    {
        "CCSDS_OMM_VERS": "3.0",
        "COMMENT": "GENERATED VIA SPACE-TRACK.ORG API",
        "CREATION_DATE": "2024-08-10T22:36:16",
        "ORIGINATOR": "18 SPCS",
        "OBJECT_NAME": "STARLINK-11175",
        "OBJECT_ID": "2024-124J",
        "CENTER_NAME": "EARTH",
        "REF_FRAME": "TEME",
        "TIME_SYSTEM": "UTC",
        "MEAN_ELEMENT_THEORY": "SGP4",
        "EPOCH": "2024-08-10T21:05:37.028256",
        "MEAN_MOTION": "15.69712922",
        "ECCENTRICITY": "0.00018880",
        "INCLINATION": "53.1586",
        "RA_OF_ASC_NODE": "120.0006",
        "ARG_OF_PERICENTER": "141.9203",
        "MEAN_ANOMALY": "218.1948",
        "EPHEMERIS_TYPE": "0",
        "CLASSIFICATION_TYPE": "U",
        "NORAD_CAT_ID": "60191",
        "ELEMENT_SET_NO": "999",
        "REV_AT_EPOCH": "727",
        "BSTAR": "0.00019443000000",
        "MEAN_MOTION_DOT": "0.00023034",
        "MEAN_MOTION_DDOT": "0.0000000000000",
        "SEMIMAJOR_AXIS": "6737.855",
        "PERIOD": "91.737",
        "APOAPSIS": "360.992",
        "PERIAPSIS": "358.448",
        "OBJECT_TYPE": "PAYLOAD",
        "RCS_SIZE": "LARGE",
        "COUNTRY_CODE": "US",
        "LAUNCH_DATE": "2024-07-03",
        "SITE": "AFETR",
        "DECAY_DATE": null,
        "FILE": "4427334",
        "GP_ID": "264732663",
        "TLE_LINE0": "0 STARLINK-11175",
        "TLE_LINE1": "1 60191U 24124J   24223.87890079  .00023034  00000-0  19443-3 0  9997",
        "TLE_LINE2": "2 60191  53.1586 120.0006 0001888 141.9203 218.1948 15.69712922  7274"
    },
    {
        "CCSDS_OMM_VERS": "3.0",
        "COMMENT": "GENERATED VIA SPACE-TRACK.ORG API",
        "CREATION_DATE": "2024-08-10T22:46:31",
        "ORIGINATOR": "18 SPCS",
        "OBJECT_NAME": "QPS-SAR-6 AMATERU-III",
        "OBJECT_ID": "2023-084V",
        "CENTER_NAME": "EARTH",
        "REF_FRAME": "TEME",
        "TIME_SYSTEM": "UTC",
        "MEAN_ELEMENT_THEORY": "SGP4",
        "EPOCH": "2024-08-10T21:05:35.590560",
        "MEAN_MOTION": "15.41845237",
        "ECCENTRICITY": "0.00057010",
        "INCLINATION": "97.5399",
        "RA_OF_ASC_NODE": "346.7495",
        "ARG_OF_PERICENTER": "177.2058",
        "MEAN_ANOMALY": "182.9222",
        "EPHEMERIS_TYPE": "0",
        "CLASSIFICATION_TYPE": "U",
        "NORAD_CAT_ID": "56951",
        "ELEMENT_SET_NO": "999",
        "REV_AT_EPOCH": "6471",
        "BSTAR": "0.00257920000000",
        "MEAN_MOTION_DOT": "0.00110771",
        "MEAN_MOTION_DDOT": "0.0000000000000",
        "SEMIMAJOR_AXIS": "6818.801",
        "PERIOD": "93.395",
        "APOAPSIS": "444.553",
        "PERIAPSIS": "436.778",
        "OBJECT_TYPE": "PAYLOAD",
        "RCS_SIZE": "LARGE",
        "COUNTRY_CODE": "JPN",
        "LAUNCH_DATE": "2023-06-12",
        "SITE": "AFWTR",
        "DECAY_DATE": null,
        "FILE": "4427526",
        "GP_ID": "264735856",
        "TLE_LINE0": "0 QPS-SAR-6 AMATERU-III",
        "TLE_LINE1": "1 56951U 23084V   24223.87888415  .00110771  00000-0  25792-2 0  9999",
        "TLE_LINE2": "2 56951  97.5399 346.7495 0005701 177.2058 182.9222 15.41845237 64715"
    }
]